NORAD_CAT_ID,OBJECT_NAME,OBJECT_TYPE,EPOCH,MEAN_MOTION,ECCENTRICITY,INCLINATION,RA_OF_ASC_NODE,ARG_OF_PERICENTER,MEAN_ANOMALY,BSTAR,MEAN_MOTION_DOT,MEAN_MOTION_DDOT,TLE_LINE0,TLE_LINE1,TLE_LINE2,SEMIMAJOR_AXIS,PERIOD,APOGEE,PERIGEE,DECAYED
52350.0,STARLINK-3754,PAYLOAD,2024-02-22 23:10:24,15.08853522,0.0001598,53.2173,306.8089,86.3787,273.7388,2.3489e-06,-2.51e-06,0.0,0 STARLINK-3754,1 52350U 22045V   24053.96555728 -.00000251  00000-0  23489-5 0  9999,2 52350  53.2173 306.8089 0001598  86.3787 273.7388 15.08853522103207,6917.839,95.437,540.81,538.599,0.0
52350.0,STARLINK-3754,PAYLOAD,2024-02-23 21:25:48,15.08834772,0.0001703,53.2169,302.6456,87.2157,272.903,4.3756e-05,4.08e-06,0.0,0 STARLINK-3754,1 52350U 22045V   24054.89292706  .00000408  00000-0  43756-4 0  9997,2 52350  53.2169 302.6456 0001703  87.2157 272.9030 15.08834772103349,6917.896,95.438,540.939,538.583,0.0
52350.0,STARLINK-3754,PAYLOAD,2024-02-24 02:11:58,15.08840126,0.0001532,53.2166,301.7525,88.6579,271.4588,1.0986e-05,-1.13e-06,0.0,0 STARLINK-3754,1 52350U 22045V   24055.09164440 -.00000113  00000-0  10986-4 0  9996,2 52350  53.2166 301.7525 0001532  88.6579 271.4588 15.08840126103371,6917.88,95.438,540.805,538.685,0.0
52350.0,STARLINK-3754,PAYLOAD,2024-02-25 19:31:59,15.08842889,0.0001515,53.2163,294.0208,82.1514,277.965,9.871e-05,1.283e-05,0.0,0 STARLINK-3754,1 52350U 22045V   24056.81388034  .00001283  00000-0  98710-4 0  9993,2 52350  53.2163 294.0208 0001515  82.1514 277.9650 15.08842889103637,6917.872,95.437,540.785,538.689,0.0
52350.0,STARLINK-3754,PAYLOAD,2024-02-25 22:42:44,15.08889854,0.0001203,53.2161,293.4269,95.2462,264.8668,-0.00049119,-8.107e-05,0.0,0 STARLINK-3754,1 52350U 22045V   24056.94634424 -.00008107  00000-0 -49119-3 0  9996,2 52350  53.2161 293.4269 0001203  95.2462 264.8668 15.08889854103655,6917.728,95.434,540.425,538.761,0.0
52350.0,STARLINK-3754,PAYLOAD,2024-02-26 19:22:47,15.08834386,0.0001396,53.2161,289.5623,94.2836,265.8316,-3.5466e-05,-8.52e-06,0.0,0 STARLINK-3754,1 52350U 22045V   24057.80749313 -.00000852  00000-0 -35466-4 0  9996,2 52350  53.2161 289.5623 0001396  94.2836 265.8316 15.08834386103787,6917.898,95.438,540.728,538.797,0.0
52350.0,STARLINK-3754,PAYLOAD,2024-02-26 22:33:33,15.08833302,0.0001414,53.2163,288.9677,93.5096,266.6058,-4.402e-05,-9.88e-06,0.0,0 STARLINK-3754,1 52350U 22045V   24057.93997453 -.00000988  00000-0 -44020-4 0  9996,2 52350  53.2163 288.9677 0001414  93.5096 266.6058 15.08833302103804,6917.901,95.438,540.744,538.788,0.0
52350.0,STARLINK-3754,PAYLOAD,2024-02-27 08:05:52,15.08835305,0.0001383,53.2161,287.1824,90.5002,269.6148,-2.6244e-05,-7.06e-06,0.0,0 STARLINK-3754,1 52350U 22045V   24058.33741391 -.00000706  00000-0 -26244-4 0  9995,2 52350  53.2161 287.1824 0001383  90.5002 269.6148 15.08835305103860,6917.895,95.438,540.716,538.803,0.0
52350.0,STARLINK-3754,PAYLOAD,2024-02-27 22:24:20,15.0884157,0.0001349,53.2157,284.5051,86.114,274.0006,3.0403e-05,1.96e-06,0.0,0 STARLINK-3754,1 52350U 22045V   24058.93356933  .00000196  00000-0  30403-4 0  9998,2 52350  53.2157 284.5051 0001349  86.1140 274.0006 15.08841570103958,6917.876,95.437,540.674,538.807,0.0
52350.0,STARLINK-3754,PAYLOAD,2024-02-27 23:59:43,15.08844591,0.0001463,53.2162,284.2098,90.2712,269.8448,4.8738e-05,4.88e-06,0.0,0 STARLINK-3754,1 52350U 22045V   24058.99980710  .00000488  00000-0  48738-4 0  9994,2 52350  53.2162 284.2098 0001463  90.2712 269.8448 15.08844591103969,6917.866,95.437,540.743,538.719,0.0
52350.0,STARLINK-3754,PAYLOAD,2024-02-28 07:56:39,15.0883619,0.0001479,53.2163,282.7226,94.5678,265.5483,0.00010794,1.43e-05,0.0,0 STARLINK-3754,1 52350U 22045V   24059.33101152  .00001430  00000-0  10794-3 0  9996,2 52350  53.2163 282.7226 0001479  94.5678 265.5483 15.08836190104016,6917.892,95.438,540.78,538.734,0.0
52350.0,STARLINK-3754,PAYLOAD,2024-02-28 14:18:12,15.08834111,0.0001463,53.2163,281.5327,90.3959,269.7201,0.00013538,1.867e-05,0.0,0 STARLINK-3754,1 52350U 22045V   24059.59597258  .00001867  00000-0  13538-3 0  9993,2 52350  53.2163 281.5327 0001463  90.3959 269.7201 15.08834111104053,6917.898,95.438,540.775,538.751,0.0
52350.0,STARLINK-3754,PAYLOAD,2024-02-28 22:15:07,15.08838243,0.0001443,53.2164,280.0464,90.7533,269.3625,0.00016491,2.337e-05,0.0,0 STARLINK-3754,1 52350U 22045V   24059.92717098  .00002337  00000-0  16491-3 0  9990,2 52350  53.2164 280.0464 0001443  90.7533 269.3625 15.08838243104102,6917.886,95.438,540.749,538.753,0.0
52350.0,STARLINK-3754,PAYLOAD,2024-02-29 14:08:59,15.08840269,0.0001494,53.2163,277.0721,88.1564,271.9599,8.2904e-05,1.032e-05,0.0,0 STARLINK-3754,1 52350U 22045V   24060.58957316  .00001032  00000-0  82904-4 0  9997,2 52350  53.2163 277.0721 0001494  88.1564 271.9599 15.08840269104205,6917.88,95.438,540.778,538.711,0.0
52350.0,STARLINK-3754,PAYLOAD,2024-02-29 20:30:31,15.08842206,0.0001425,53.2157,275.8826,89.255,270.8605,9.6744e-05,1.252e-05,0.0,0 STARLINK-3754,1 52350U 22045V   24060.85453116  .00001252  00000-0  96744-4 0  9997,2 52350  53.2157 275.8826 0001425  89.2550 270.8605 15.08842206104244,6917.874,95.437,540.724,538.753,0.0
52350.0,STARLINK-3754,PAYLOAD,2024-02-29 23:41:17,15.08846332,0.0001418,53.2159,275.2876,89.8506,270.2649,7.8604e-05,9.63e-06,0.0,0 STARLINK-3754,1 52350U 22045V   24060.98700858  .00000963  00000-0  78604-4 0  9992,2 52350  53.2159 275.2876 0001418  89.8506 270.2649 15.08846332104262,6917.861,95.437,540.707,538.745,0.0
52350.0,STARLINK-3754,PAYLOAD,2024-03-01 20:21:18,15.0884404,0.0001381,53.2159,271.4213,91.3828,268.7323,2.6331e-05,1.31e-06,0.0,0 STARLINK-3754,1 52350U 22045V   24061.84813043  .00000131  00000-0  26331-4 0  9996,2 52350  53.2159 271.4213 0001381  91.3828 268.7323 15.08844040104398,6917.868,95.437,540.688,538.778,0.0
52350.0,STARLINK-3754,PAYLOAD,2024-03-02 18:36:42,15.08832774,0.0001399,53.2167,267.2577,97.7357,262.3794,0.00026481,3.928e-05,0.0,0 STARLINK-3754,1 52350U 22045V   24062.77549181  .00003928  00000-0  26481-3 0  9990,2 52350  53.2167 267.2577 0001399  97.7357 262.3794 15.08832774104538,6917.902,95.438,540.735,538.8,0.0
52350.0,STARLINK-3754,PAYLOAD,2024-03-03 20:02:53,15.08836617,0.0001366,53.2158,262.5003,91.4299,268.6849,2.5552e-06,-2.47e-06,0.0,0 STARLINK-3754,1 52350U 22045V   24063.83533587 -.00000247  00000-0  25552-5 0  9993,2 52350  53.2158 262.5003 0001366  91.4299 268.6849 15.08836617104697,6917.891,95.438,540.701,538.811,0.0
52350.0,STARLINK-3754,PAYLOAD,2024-03-04 05:35:11,15.0884242,0.0001263,53.2161,260.718,102.4968,257.6166,6.1613e-05,6.93e-06,0.0,0 STARLINK-3754,1 52350U 22045V   24064.23277039  .00000693  00000-0  61613-4 0  9996,2 52350  53.2161 260.7180 0001263 102.4968 257.6166 15.08842420104755,6917.873,95.437,540.612,538.864,0.0
52350.0,STARLINK-3754,PAYLOAD,2024-03-04 19:53:39,15.08829975,0.0001295,53.2148,258.0384,78.4955,281.6182,0.00049393,7.58e-05,0.0,0 STARLINK-3754,1 52350U 22045V   24064.82892683  .00007580  00000-0  49393-3 0  9991,2 52350  53.2148 258.0384 0001295  78.4955 281.6182 15.08829975104844,6917.911,95.438,540.672,538.88,0.0
52350.0,STARLINK-3754,PAYLOAD,2024-03-05 13:22:54,15.08835556,0.0001316,53.2152,254.7709,92.4574,267.6569,-2.5765e-05,-6.98e-06,0.0,0 STARLINK-3754,1 52350U 22045V   24065.55757302 -.00000698  00000-0 -25765-4 0  9993,2 52350  53.2152 254.7709 0001316  92.4574 267.6569 15.08835556104957,6917.894,95.438,540.669,538.849,0.0
52350.0,STARLINK-3754,PAYLOAD,2024-03-05 18:09:03,15.08837084,0.0001117,53.214,253.8738,76.3614,283.7503,-3.6389e-05,-8.67e-06,0.0,0 STARLINK-3754,1 52350U 22045V   24065.75629191 -.00000867  00000-0 -36389-4 0  9991,2 52350  53.2140 253.8738 0001117  76.3614 283.7503 15.08837084104989,6917.889,95.438,540.527,538.982,0.0
52350.0,STARLINK-3754,PAYLOAD,2024-03-06 05:16:45,15.08837382,0.0001158,53.2148,251.7954,88.0008,272.1117,-1.4705e-05,-5.22e-06,0.0,0 STARLINK-3754,1 52350U 22045V   24066.21997270 -.00000522  00000-0 -14705-4 0  9995,2 52350  53.2148 251.7954 0001158  88.0008 272.1117 15.08837382105059,6917.888,95.438,540.554,538.952,0.0
52350.0,STARLINK-3754,PAYLOAD,2024-03-06 19:35:14,15.0883625,0.0001308,53.2154,249.1202,91.6655,268.4487,5.9054e-05,6.52e-06,0.0,0 STARLINK-3754,1 52350U 22045V   24066.81613536  .00000652  00000-0  59054-4 0  9999,2 52350  53.2154 249.1202 0001308  91.6655 268.4487 15.08836250105149,6917.892,95.438,540.662,538.852,0.0
52350.0,STARLINK-3754,PAYLOAD,2024-03-07 11:29:05,15.08835821,0.0001324,53.2157,246.1453,89.6694,270.445,0.00020361,2.954e-05,0.0,0 STARLINK-3754,1 52350U 22045V   24067.47853868  .00002954  00000-0  20361-3 0  9991,2 52350  53.2157 246.1453 0001324  89.6694 270.4450 15.08835821105242,6917.893,95.438,540.674,538.842,0.0
52350.0,STARLINK-3754,PAYLOAD,2024-03-08 04:58:20,15.08842977,0.0001288,53.2149,242.8748,83.6334,276.4804,0.00018315,2.628e-05,0.0,0 STARLINK-3754,1 52350U 22045V   24068.20717623  .00002628  00000-0  18315-3 0  9995,2 52350  53.2149 242.8748 0001288  83.6334 276.4804 15.08842977105358,6917.871,95.437,540.627,538.845,0.0
52350.0,STARLINK-3754,PAYLOAD,2024-03-08 11:19:52,15.08840304,0.0001365,53.2152,241.6859,85.6147,274.5001,0.0001501,2.102e-05,0.0,0 STARLINK-3754,1 52350U 22045V   24068.47213850  .00002102  00000-0  15010-3 0  9993,2 52350  53.2152 241.6859 0001365  85.6147 274.5001 15.08840304105396,6917.879,95.438,540.689,538.8,0.0
52350.0,STARLINK-3754,PAYLOAD,2024-03-08 17:41:25,15.0884163,0.0001357,53.2151,240.4965,85.511,274.6037,0.00015274,2.144e-05,0.0,0 STARLINK-3754,1 52350U 22045V   24068.73709799  .00002144  00000-0  15274-3 0  9992,2 52350  53.2151 240.4965 0001357  85.5110 274.6037 15.08841630105438,6917.875,95.437,540.679,538.802,0.0
52350.0,STARLINK-3754,PAYLOAD,2024-03-09 11:10:39,15.08841616,0.000129,53.2125,237.2225,93.0267,267.0873,0.00010039,1.31e-05,0.0,0 STARLINK-3754,1 52350U 22045V   24069.46573800  .00001310  00000-0  10039-3 0  9993,2 52350  53.2125 237.2225 0001290  93.0267 267.0873 15.08841616105545,6917.875,95.437,540.633,538.848,0.0
